[
    {
        "Altitude(m)": 558185.6306380067,
        "Argument of Periapsis(deg)": 0.033114955553567506,
        "Eccentricity": 0.0,
        "Inclination(deg)": 53.0,
        "Latitude(deg)": -17.76221287100892,
        "Longitude(deg)": 107.12146105211133,
        "Mean Anomaly(deg)": -22.269235662112013,
        "RAAN(deg)": 224.95071684264008,
        "Satellite Name": "Starlink Shell 1 1007",
        "Satellite Number": 1007,
        "Semi-Major Axis(m)": 6931778.249405717,
        "Time(s)": 950
    },
    {
        "Altitude(m)": 558036.3482583911,
        "Argument of Periapsis(deg)": 0.03346353403307874,
        "Eccentricity": 0.0,
        "Inclination(deg)": 53.0,
        "Latitude(deg)": -17.273459260071018,
        "Longitude(deg)": 107.4937136616937,
        "Mean Anomaly(deg)": -21.642404458555344,
        "RAAN(deg)": 224.9501980725626,
        "Satellite Name": "Starlink Shell 1 1007",
        "Satellite Number": 1007,
        "Semi-Major Axis(m)": 6931778.249405717,
        "Time(s)": 960
    },
    {
        "Altitude(m)": 557888.8233025752,
        "Argument of Periapsis(deg)": 0.03381211251258998,
        "Eccentricity": 0.0,
        "Inclination(deg)": 53.0,
        "Latitude(deg)": -16.783820761837074,
        "Longitude(deg)": 107.8638034708054,
        "Mean Anomaly(deg)": -21.015573254998674,
        "RAAN(deg)": 224.94967930248512,
        "Satellite Name": "Starlink Shell 1 1007",
        "Satellite Number": 1007,
        "Semi-Major Axis(m)": 6931778.249405717,
        "Time(s)": 970
    },
    {
        "Altitude(m)": 557743.1049596169,
        "Argument of Periapsis(deg)": 0.034160690992101214,
        "Eccentricity": 0.0,
        "Inclination(deg)": 53.0,
        "Latitude(deg)": -16.293327561883245,
        "Longitude(deg)": 108.23180276839628,
        "Mean Anomaly(deg)": -20.388742051441927,
        "RAAN(deg)": 224.94916053240766,
        "Satellite Name": "Starlink Shell 1 1007",
        "Satellite Number": 1007,
        "Semi-Major Axis(m)": 6931778.249405717,
        "Time(s)": 980
    },
    {
        "Altitude(m)": 557599.2414651634,
        "Argument of Periapsis(deg)": 0.034509269471612446,
        "Eccentricity": 0.0,
        "Inclination(deg)": 53.0,
        "Latitude(deg)": -15.802009385689828,
        "Longitude(deg)": 108.5977834793299,
        "Mean Anomaly(deg)": -19.76191084788518,
        "RAAN(deg)": 224.94864176233023,
        "Satellite Name": "Starlink Shell 1 1007",
        "Satellite Number": 1007,
        "Semi-Major Axis(m)": 6931778.249405717,
        "Time(s)": 990
    }
]